[{"OBJECT_NAME":"BEIDOU-2 IGSO-1 (C06)","OBJECT_ID":"2010-036A","EPOCH":"2026-03-19T22:41:52.146816","MEAN_MOTION":1.00248068,"ECCENTRICITY":0.0054955,"INCLINATION":54.2916,"RA_OF_ASC_NODE":163.7709,"ARG_OF_PERICENTER":219.8858,"MEAN_ANOMALY":238.0541,"EPHEMERIS_TYPE":0,"CLASSIFICATION_TYPE":"U","NORAD_CAT_ID":36828,"ELEMENT_SET_NO":999,"REV_AT_EPOCH":5720,"BSTAR":0,"MEAN_MOTION_DOT":-1.03e-6,"MEAN_MOTION_DDOT":0},{"OBJECT_NAME":"BEIDOU-2 G4 (C04)","OBJECT_ID":"2010-057A","EPOCH":"2026-03-28T20:40:46.684416","MEAN_MOTION":1.00270961,"ECCENTRICITY":0.00079462,"INCLINATION":3.4481,"RA_OF_ASC_NODE":69.3915,"ARG_OF_PERICENTER":213.4556,"MEAN_ANOMALY":13.6278,"EPHEMERIS_TYPE":0,"CLASSIFICATION_TYPE":"U","NORAD_CAT_ID":37210,"ELEMENT_SET_NO":999,"REV_AT_EPOCH":5648,"BSTAR":0,"MEAN_MOTION_DOT":-1.29e-6,"MEAN_MOTION_DDOT":0},{"OBJECT_NAME":"BEIDOU-2 IGSO-2 (C07)","OBJECT_ID":"2010-068A","EPOCH":"2026-03-19T22:32:24.413280","MEAN_MOTION":1.00254021,"ECCENTRICITY":0.0047798,"INCLINATION":47.7058,"RA_OF_ASC_NODE":272.9336,"ARG_OF_PERICENTER":212.7858,"MEAN_ANOMALY":135.9365,"EPHEMERIS_TYPE":0,"CLASSIFICATION_TYPE":"U","NORAD_CAT_ID":37256,"ELEMENT_SET_NO":999,"REV_AT_EPOCH":5589,"BSTAR":0,"MEAN_MOTION_DOT":-1.76e-6,"MEAN_MOTION_DDOT":0},{"OBJECT_NAME":"BEIDOU-2 IGSO-3 (C08)","OBJECT_ID":"2011-013A","EPOCH":"2026-03-26T19:21:38.699424","MEAN_MOTION":1.00287208,"ECCENTRICITY":0.00341987,"INCLINATION":62.3016,"RA_OF_ASC_NODE":40.9294,"ARG_OF_PERICENTER":190.2272,"MEAN_ANOMALY":350.7783,"EPHEMERIS_TYPE":0,"CLASSIFICATION_TYPE":"U","NORAD_CAT_ID":37384,"ELEMENT_SET_NO":999,"REV_AT_EPOCH":5483,"BSTAR":0,"MEAN_MOTION_DOT":-1.76e-6,"MEAN_MOTION_DDOT":0},{"OBJECT_NAME":"BEIDOU-2 IGSO-4 (C09)","OBJECT_ID":"2011-038A","EPOCH":"2026-03-28T15:54:07.127136","MEAN_MOTION":1.00260433,"ECCENTRICITY":0.0156581,"INCLINATION":54.5871,"RA_OF_ASC_NODE":166.404,"ARG_OF_PERICENTER":231.4212,"MEAN_ANOMALY":120.2889,"EPHEMERIS_TYPE":0,"CLASSIFICATION_TYPE":"U","NORAD_CAT_ID":37763,"ELEMENT_SET_NO":999,"REV_AT_EPOCH":5383,"BSTAR":0,"MEAN_MOTION_DOT":-1.09e-6,"MEAN_MOTION_DDOT":0},{"OBJECT_NAME":"BEIDOU-2 IGSO-5 (C10)","OBJECT_ID":"2011-073A","EPOCH":"2026-03-28T11:48:15.484896","MEAN_MOTION":1.00266601,"ECCENTRICITY":0.01093149,"INCLINATION":47.8262,"RA_OF_ASC_NODE":272.5386,"ARG_OF_PERICENTER":220.7131,"MEAN_ANOMALY":324.4481,"EPHEMERIS_TYPE":0,"CLASSIFICATION_TYPE":"U","NORAD_CAT_ID":37948,"ELEMENT_SET_NO":999,"REV_AT_EPOCH":5232,"BSTAR":0,"MEAN_MOTION_DOT":-1.56e-6,"MEAN_MOTION_DDOT":0},{"OBJECT_NAME":"BEIDOU-2 G5 (C05)","OBJECT_ID":"2012-008A","EPOCH":"2026-03-28T21:54:32.109696","MEAN_MOTION":1.00273247,"ECCENTRICITY":0.00135157,"INCLINATION":3.3741,"RA_OF_ASC_NODE":70.149,"ARG_OF_PERICENTER":257.99,"MEAN_ANOMALY":245.5221,"EPHEMERIS_TYPE":0,"CLASSIFICATION_TYPE":"U","NORAD_CAT_ID":38091,"ELEMENT_SET_NO":999,"REV_AT_EPOCH":5156,"BSTAR":0,"MEAN_MOTION_DOT":4.0e-7,"MEAN_MOTION_DDOT":0},{"OBJECT_NAME":"BEIDOU-2 M3 (C11)","OBJECT_ID":"2012-018A","EPOCH":"2026-03-27T00:49:15.100320","MEAN_MOTION":1.86229764,"ECCENTRICITY":0.0020428,"INCLINATION":55.8269,"RA_OF_ASC_NODE":307.6446,"ARG_OF_PERICENTER":279.3138,"MEAN_ANOMALY":80.4965,"EPHEMERIS_TYPE":0,"CLASSIFICATION_TYPE":"U","NORAD_CAT_ID":38250,"ELEMENT_SET_NO":999,"REV_AT_EPOCH":9441,"BSTAR":0,"MEAN_MOTION_DOT":-3.5e-7,"MEAN_MOTION_DDOT":0},{"OBJECT_NAME":"BEIDOU-2 M4 (C12)","OBJECT_ID":"2012-018B","EPOCH":"2026-03-26T23:11:35.297664","MEAN_MOTION":1.86229475,"ECCENTRICITY":0.0011786,"INCLINATION":55.7282,"RA_OF_ASC_NODE":306.8676,"ARG_OF_PERICENTER":286.4147,"MEAN_ANOMALY":73.4963,"EPHEMERIS_TYPE":0,"CLASSIFICATION_TYPE":"U","NORAD_CAT_ID":38251,"ELEMENT_SET_NO":999,"REV_AT_EPOCH":9441,"BSTAR":0,"MEAN_MOTION_DOT":-3.3e-7,"MEAN_MOTION_DDOT":0},{"OBJECT_NAME":"BEIDOU-2 M6 (C14)","OBJECT_ID":"2012-050B","EPOCH":"2026-03-23T23:47:57.952608","MEAN_MOTION":1.86230776,"ECCENTRICITY":0.00143415,"INCLINATION":56.4716,"RA_OF_ASC_NODE":65.7096,"ARG_OF_PERICENTER":343.8806,"MEAN_ANOMALY":16.067,"EPHEMERIS_TYPE":0,"CLASSIFICATION_TYPE":"U","NORAD_CAT_ID":38775,"ELEMENT_SET_NO":999,"REV_AT_EPOCH":9172,"BSTAR":0,"MEAN_MOTION_DOT":-1.0e-8,"MEAN_MOTION_DDOT":0},{"OBJECT_NAME":"BEIDOU-2 G6 (C02)","OBJECT_ID":"2012-059A","EPOCH":"2026-03-28T22:01:46.415712","MEAN_MOTION":1.00272192,"ECCENTRICITY":0.0010514,"INCLINATION":4.2187,"RA_OF_ASC_NODE":74.3634,"ARG_OF_PERICENTER":307.9252,"MEAN_ANOMALY":218.5235,"EPHEMERIS_TYPE":0,"CLASSIFICATION_TYPE":"U","NORAD_CAT_ID":38953,"ELEMENT_SET_NO":999,"REV_AT_EPOCH":4910,"BSTAR":0,"MEAN_MOTION_DOT":-1.92e-6,"MEAN_MOTION_DDOT":0},{"OBJECT_NAME":"BEIDOU-3S IGSO-1S (C31)","OBJECT_ID":"2015-019A","EPOCH":"2026-03-23T06:58:51.098016","MEAN_MOTION":1.00268843,"ECCENTRICITY":0.0036261,"INCLINATION":49.3559,"RA_OF_ASC_NODE":296.4949,"ARG_OF_PERICENTER":190.1236,"MEAN_ANOMALY":255.118,"EPHEMERIS_TYPE":0,"CLASSIFICATION_TYPE":"U","NORAD_CAT_ID":40549,"ELEMENT_SET_NO":999,"REV_AT_EPOCH":4021,"BSTAR":0,"MEAN_MOTION_DOT":-1.63e-6,"MEAN_MOTION_DDOT":0},{"OBJECT_NAME":"BEIDOU-3S M2S (C58)","OBJECT_ID":"2015-037A","EPOCH":"2026-03-26T15:11:41.766720","MEAN_MOTION":1.86231913,"ECCENTRICITY":0.00081621,"INCLINATION":54.943,"RA_OF_ASC_NODE":304.8894,"ARG_OF_PERICENTER":277.0076,"MEAN_ANOMALY":82.9375,"EPHEMERIS_TYPE":0,"CLASSIFICATION_TYPE":"U","NORAD_CAT_ID":40748,"ELEMENT_SET_NO":999,"REV_AT_EPOCH":7258,"BSTAR":0,"MEAN_MOTION_DOT":-3.1e-7,"MEAN_MOTION_DDOT":0},{"OBJECT_NAME":"BEIDOU-3S M1S (C57)","OBJECT_ID":"2015-037B","EPOCH":"2026-03-28T11:04:15.951936","MEAN_MOTION":1.86254792,"ECCENTRICITY":0.00047038,"INCLINATION":54.9387,"RA_OF_ASC_NODE":304.8137,"ARG_OF_PERICENTER":41.1359,"MEAN_ANOMALY":318.9389,"EPHEMERIS_TYPE":0,"CLASSIFICATION_TYPE":"U","NORAD_CAT_ID":40749,"ELEMENT_SET_NO":999,"REV_AT_EPOCH":7262,"BSTAR":0,"MEAN_MOTION_DOT":-3.6e-7,"MEAN_MOTION_DDOT":0},{"OBJECT_NAME":"BEIDOU-2 IGSO-6 (C13)","OBJECT_ID":"2016-021A","EPOCH":"2026-03-24T21:08:57.365664","MEAN_MOTION":1.00273949,"ECCENTRICITY":0.00588989,"INCLINATION":60.1156,"RA_OF_ASC_NODE":38.8764,"ARG_OF_PERICENTER":233.5118,"MEAN_ANOMALY":322.9213,"EPHEMERIS_TYPE":0,"CLASSIFICATION_TYPE":"U","NORAD_CAT_ID":41434,"ELEMENT_SET_NO":999,"REV_AT_EPOCH":3663,"BSTAR":0,"MEAN_MOTION_DOT":-1.54e-6,"MEAN_MOTION_DDOT":0},{"OBJECT_NAME":"BEIDOU-2 G7 (C03)","OBJECT_ID":"2016-037A","EPOCH":"2026-03-28T22:09:23.185728","MEAN_MOTION":1.00266672,"ECCENTRICITY":0.00076907,"INCLINATION":1.5222,"RA_OF_ASC_NODE":68.4739,"ARG_OF_PERICENTER":347.5023,"MEAN_ANOMALY":213.1885,"EPHEMERIS_TYPE":0,"CLASSIFICATION_TYPE":"U","NORAD_CAT_ID":41586,"ELEMENT_SET_NO":999,"REV_AT_EPOCH":608,"BSTAR":0,"MEAN_MOTION_DOT":-3.71e-6,"MEAN_MOTION_DDOT":0},{"OBJECT_NAME":"BEIDOU-3 M1 (C19)","OBJECT_ID":"2017-069A","EPOCH":"2026-03-28T01:15:54.969984","MEAN_MOTION":1.8623089,"ECCENTRICITY":0.00125978,"INCLINATION":56.6237,"RA_OF_ASC_NODE":65.755,"ARG_OF_PERICENTER":313.5526,"MEAN_ANOMALY":46.3376,"EPHEMERIS_TYPE":0,"CLASSIFICATION_TYPE":"U","NORAD_CAT_ID":43001,"ELEMENT_SET_NO":999,"REV_AT_EPOCH":5709,"BSTAR":0,"MEAN_MOTION_DOT":1.0e-8,"MEAN_MOTION_DDOT":0}]
