BEIDOU-2 IGSO-1         
1 36828U 10036A   26078.94574244 -.00000103  00000+0  00000+0 0  9992
2 36828  54.2916 163.7709 0054955 219.8858 238.0541  1.00248068 57204
BEIDOU-2 G4             
1 37210U 10057A   26087.86165144 -.00000129  00000+0  00000+0 0  9995
2 37210   3.4481  69.3915 0007946 213.4556  13.6278  1.00270961 56486
BEIDOU-2 IGSO-2         
1 37256U 10068A   26078.93917145 -.00000176  00000+0  00000+0 0  9993
2 37256  47.7058 272.9336 0047798 212.7858 135.9365  1.00254021 55890
BEIDOU-2 IGSO-3         
1 37384U 11013A   26085.80669791 -.00000176  00000+0  00000+0 0  9991
2 37384  62.3016  40.9294 0034198 190.2272 350.7783  1.00287208 54832
BEIDOU-2 IGSO-4         
1 37763U 11038A   26087.66258249 -.00000109  00000+0  00000+0 0  9993
2 37763  54.5871 166.4040 0156581 231.4212 120.2889  1.00260433 53838
BEIDOU-2 IGSO-5         
1 37948U 11073A   26087.49184589 -.00000156  00000+0  00000+0 0  9995
2 37948  47.8262 272.5386 0109314 220.7131 324.4481  1.00266601 52329
BEIDOU-2 G5             
1 38091U 12008A   26087.91287164  .00000040  00000+0  00000+0 0  9995
2 38091   3.3741  70.1490 0013515 257.9900 245.5221  1.00273247 51563
BEIDOU-2 M3             
1 38250U 12018A   26086.03420255 -.00000035  00000+0  00000+0 0  9990
2 38250  55.8269 307.6446 0020428 279.3138  80.4965  1.86229764 94419
BEIDOU-2 M4             
1 38251U 12018B   26085.96638076 -.00000033  00000+0  00000+0 0  9992
2 38251  55.7282 306.8676 0011786 286.4147  73.4963  1.86229475 94415
BEIDOU-2 M6             
1 38775U 12050B   26082.99164297 -.00000001  00000+0  00000+0 0  9993
2 38775  56.4716  65.7096 0014341 343.8806  16.0670  1.86230776 91728
BEIDOU-2 G6             
1 38953U 12059A   26087.91789833 -.00000192  00000+0  00000+0 0  9997
2 38953   4.2187  74.3634 0010514 307.9252 218.5235  1.00272192 49102
BEIDOU-3S IGSO-1S       
1 40549U 15019A   26082.29086919 -.00000163  00000+0  00000+0 0  9999
2 40549  49.3559 296.4949 0036261 190.1236 255.1180  1.00268843 40213
BEIDOU-3S M2S           
1 40748U 15037A   26085.63312230 -.00000031  00000+0  00000+0 0  9993
2 40748  54.9430 304.8894 0008162 277.0076  82.9375  1.86231913 72582
BEIDOU-3S M1S           
1 40749U 15037B   26087.46129574 -.00000036  00000+0  00000+0 0  9999
2 40749  54.9387 304.8137 0004703  41.1359 318.9389  1.86254792 72627
BEIDOU-2 IGSO-6         
1 41434U 16021A   26083.88121951 -.00000154  00000+0  00000+0 0  9999
2 41434  60.1156  38.8764 0058898 233.5118 322.9213  1.00273949 36639
BEIDOU-2 G7             
1 41586U 16037A   26087.92318502 -.00000371  00000+0  00000+0 0  9994
2 41586   1.5222  68.4739 0007690 347.5023 213.1885  1.00266672  6083
BEIDOU-3 M1             
1 43001U 17069A   26087.05271956  .00000001  00000+0  00000+0 0  9998
2 43001  56.6237  65.7550 0012597 313.5526  46.3376  1.86230890 57093
